NORAD_CAT_ID,OBJECT_NAME,OBJECT_TYPE,EPOCH,MEAN_MOTION,ECCENTRICITY,INCLINATION,RA_OF_ASC_NODE,ARG_OF_PERICENTER,MEAN_ANOMALY,BSTAR,MEAN_MOTION_DOT,MEAN_MOTION_DDOT,TLE_LINE0,TLE_LINE1,TLE_LINE2,SEMIMAJOR_AXIS,PERIOD,APOGEE,PERIGEE,DECAYED
53866.0,STARLINK-4762,PAYLOAD,2022-10-14 20:00:01,15.73204098,0.0001539,53.2173,131.1221,102.8577,227.4347,2.5742000000000003e-06,-2.59e-06,0.0,0 STARLINK-4762,1 53866U 22114BA  22287.83334491 -.00000259  00000-0  25742-5 0  9996,2 53866  53.2173 131.1221 0001539 102.8577 227.4347 15.73204098  1302,6727.8830000000025,91.533,350.784,348.713,0.0
53866.0,STARLINK-4762,PAYLOAD,2022-10-15 14:00:01,15.73223779,0.0001331999999999,53.216,127.405,108.2272,152.22899999999996,-0.00029805,-0.00042282,0.0,0 STARLINK-4762,1 53866U 22114BA  22288.58334491 -.00042282  00000-0 -29805-3 0  9994,2 53866  53.2160 127.4050 0001332 108.2272 152.2290 15.73223779  1308,6727.8269999999975,91.532,350.589,348.796,0.0
53866.0,STARLINK-4762,PAYLOAD,2022-10-15 22:00:01,15.73205263,0.0001351999999999,53.2174,125.7615,122.6589,226.7348,-1.3528e-05,-2.518e-05,0.0,0 STARLINK-4762,1 53866U 22114BA  22288.91668981 -.00002518  00000-0 -13528-4 0  9999,2 53866  53.2174 125.7615 0001352 122.6589 226.7348 15.73205263  4801,6727.88,91.533,350.655,348.836,0.0
53866.0,STARLINK-4762,PAYLOAD,2022-10-16 14:00:01,15.73156889,0.0001195,53.2162,122.4568,105.7987,61.3915,2.793e-05,3.295e-05,0.0,0 STARLINK-4762,1 53866U 22114BA  22289.58334491  .00003295  00000-0  27930-4 0  9992,2 53866  53.2162 122.4568 0001195 105.7987  61.3915 15.73156889  1302,6728.018,91.536,350.68699999999984,349.079,0.0
53866.0,STARLINK-4762,PAYLOAD,2022-10-16 22:00:00,15.7313669,0.0001054,53.2164,120.81,87.6851,168.3848,0.0007101,0.00099958,0.0,0 STARLINK-4762,1 53866U 22114BA  22289.91667824  .00099958  00000-0  71010-3 0  9996,2 53866  53.2164 120.8100 0001054  87.6851 168.3848 15.73136690  1301,6728.076,91.537,350.65,349.232,0.0
53866.0,STARLINK-4762,PAYLOAD,2022-10-17 06:00:00,15.73237956,0.0001001,53.2166,119.1589,95.251,249.7107,-0.00023875,-0.00034044,0.0,0 STARLINK-4762,1 53866U 22114BA  22290.25001157 -.00034044  00000-0 -23875-3 0  9999,2 53866  53.2166 119.1589 0001001  95.2510 249.7107 15.73237956  5015,6727.7869999999975,91.531,350.325,348.97900000000016,0.0
53866.0,STARLINK-4762,PAYLOAD,2022-10-17 14:00:01,15.73227369,0.0001147,53.2164,117.509,101.0726,332.8872,0.00044293,0.00062076,0.0,0 STARLINK-4762,1 53866U 22114BA  22290.58334491  .00062076  00000-0  44293-3 0  9996,2 53866  53.2164 117.5090 0001147 101.0726 332.8872 15.73227369  5063,6727.816999999999,91.532,350.454,348.91,0.0
53866.0,STARLINK-4762,PAYLOAD,2022-10-17 22:00:00,15.73244599,0.0001074,53.2159,115.8612,82.4691,80.4608,-0.00024211,-0.00034523,0.0,0 STARLINK-4762,1 53866U 22114BA  22290.91667824 -.00034523  00000-0 -24211-3 0  9998,2 53866  53.2159 115.8612 0001074  82.4691  80.4608 15.73244599  5124,6727.768,91.531,350.356,348.91,0.0
53866.0,STARLINK-4762,PAYLOAD,2022-10-18 14:00:01,15.73184605,0.0001266,53.2161,112.5603,91.7771,249.027,0.00028455,0.00039476,0.0,0 STARLINK-4762,1 53866U 22114BA  22291.58334491  .00039476  00000-0  28455-3 0  9997,2 53866  53.2161 112.5603 0001266  91.7771 249.0270 15.73184605  1301,6727.939,91.534,350.656,348.952,0.0
53866.0,STARLINK-4762,PAYLOAD,2022-10-18 22:00:00,15.73202145,0.0001246,53.2176,110.9156,90.4165,339.3213,2.891e-05,3.439e-05,0.0,0 STARLINK-4762,1 53866U 22114BA  22291.91667824  .00003439  00000-0  28910-4 0  9990,2 53866  53.2176 110.9156 0001246  90.4165 339.3213 15.73202145  1303,6727.889,91.533,350.592,348.916,0.0
53866.0,STARLINK-4762,PAYLOAD,2022-10-19 14:00:01,15.73220272,0.0001091,53.2159,107.6122,82.4613,165.1328,-1.0105e-05,-2.039e-05,0.0,0 STARLINK-4762,1 53866U 22114BA  22292.58334491 -.00002039  00000-0 -10105-4 0  9999,2 53866  53.2159 107.6122 0001091  82.4613 165.1328 15.73220272  1300,6727.837,91.532,350.436,348.968,0.0
53866.0,STARLINK-4762,PAYLOAD,2022-10-19 22:00:00,15.73202316,0.000108,53.2154,105.9644,68.0895,268.4611,1.7085e-05,1.779e-05,0.0,0 STARLINK-4762,1 53866U 22114BA  22292.91667824  .00001779  00000-0  17085-4 0  9997,2 53866  53.2154 105.9644 0001080  68.0895 268.4611 15.73202316  5434,6727.889,91.533,350.48,349.027,0.0
53866.0,STARLINK-4762,PAYLOAD,2022-10-20 14:00:01,15.73196973,0.0001062,53.216,102.6638,78.3563,76.038,0.00021628,0.00029837,0.0,0 STARLINK-4762,1 53866U 22114BA  22293.58334491  .00029837  00000-0  21628-3 0  9994,2 53866  53.2160 102.6638 0001062  78.3563  76.0380 15.73196973  1303,6727.904,91.533,350.483,349.05400000000014,0.0
53866.0,STARLINK-4762,PAYLOAD,2022-10-20 22:00:00,15.73167861,0.0001058,53.2159,101.0166,55.2884,188.0346,0.00020328,0.00027965,0.0,0 STARLINK-4762,1 53866U 22114BA  22293.91667824  .00027965  00000-0  20328-3 0  9996,2 53866  53.2159 101.0166 0001058  55.2884 188.0346 15.73167861  1305,6727.986999999999,91.535,350.564,349.14,0.0
53866.0,STARLINK-4762,PAYLOAD,2022-10-21 14:00:01,15.7328092,9.97e-05,53.2159,97.7155,61.7383,359.4689,-0.00049472,-0.00069715,0.0,0 STARLINK-4762,1 53866U 22114BA  22294.58334491 -.00069715  00000-0 -49472-3 0  9993,2 53866  53.2159  97.7155 0000997  61.7383 359.4689 15.73280920  5693,6727.6640000000025,91.528,350.2,348.8590000000001,0.0
53866.0,STARLINK-4762,PAYLOAD,2022-10-21 22:00:00,15.73216983,0.0001406999999999,53.2147,96.0669,55.7861,94.4033,-0.0001312,-0.00019005,0.0,0 STARLINK-4762,1 53866U 22114BA  22294.91667824 -.00019005  00000-0 -13120-3 0  9997,2 53866  53.2147  96.0669 0001407  55.7861  94.4033 15.73216983  1304,6727.847,91.532,350.658,348.765,0.0
53866.0,STARLINK-4762,PAYLOAD,2022-10-22 14:00:01,15.73222452,0.0001516,53.2151,92.7661,64.7376,263.2928,9.0913e-06,6.57e-06,0.0,0 STARLINK-4762,1 53866U 22114BA  22295.58334491  .00000657  00000-0  90913-5 0  9990,2 53866  53.2151  92.7661 0001516  64.7376 263.2928 15.73222452  1303,6727.831,91.532,350.716,348.676,0.0
53866.0,STARLINK-4762,PAYLOAD,2022-10-22 22:00:00,15.732042800000002,0.000149,53.2149,91.1177,51.0961,5.9126,0.00060304,0.00084888,0.0,0 STARLINK-4762,1 53866U 22114BA  22295.91667824  .00084888  00000-0  60304-3 0  9993,2 53866  53.2149  91.1177 0001490  51.0961   5.9126 15.73204280  1305,6727.8830000000025,91.533,350.75,348.746,0.0
53866.0,STARLINK-4762,PAYLOAD,2022-10-23 08:00:01,15.73270426,0.0001237,53.2149,89.0532,51.6594,206.6494,0.00024373,0.00033827,0.0,0 STARLINK-4762,1 53866U 22114BA  22296.33335648  .00033827  00000-0  24373-3 0  9999,2 53866  53.2149  89.0532 0001237  51.6594 206.6494 15.73270426  5973,6727.694,91.529,350.392,348.727,0.0
53866.0,STARLINK-4762,PAYLOAD,2022-10-23 14:00:01,15.73289262,0.0001325,53.215,87.8172,49.5505,185.4298,-0.00064927,-0.00091107,0.0,0 STARLINK-4762,1 53866U 22114BA  22296.58334491 -.00091107  00000-0 -64927-3 0  9997,2 53866  53.2150  87.8172 0001325  49.5505 185.4298 15.73289262  6017,6727.641,91.528,350.397,348.61400000000015,0.0
53866.0,STARLINK-4762,PAYLOAD,2022-10-23 22:00:00,15.73218363,0.000146,53.2144,86.1686,40.7805,283.19,-0.00042773,-0.00060269,0.0,0 STARLINK-4762,1 53866U 22114BA  22296.91667824 -.00060269  00000-0 -42773-3 0  9993,2 53866  53.2144  86.1686 0001460  40.7805 283.1900 15.73218363  1305,6727.843000000003,91.532,350.69,348.726,0.0
53866.0,STARLINK-4762,PAYLOAD,2022-10-24 14:00:01,15.73089997,0.0001238,53.215,82.8684,35.4394,106.2989,0.00028307,0.00039105,0.0,0 STARLINK-4762,1 53866U 22114BA  22297.58334491  .00039105  00000-0  28307-3 0  9998,2 53866  53.2150  82.8684 0001238  35.4394 106.2989 15.73089997  1301,6728.209,91.54,350.907,349.241,0.0
53866.0,STARLINK-4762,PAYLOAD,2022-10-24 22:00:00,15.73108283,0.0001416999999999,53.2149,81.22,27.0688,203.4749,0.00064263,0.00090186,0.0,0 STARLINK-4762,1 53866U 22114BA  22297.91667824  .00090186  00000-0  64263-3 0  9991,2 53866  53.2149  81.2200 0001417  27.0688 203.4749 15.73108283  1302,6728.156999999997,91.539,350.975,349.0680000000001,0.0
53866.0,STARLINK-4762,PAYLOAD,2022-10-25 00:00:00,15.73143704,0.0001404,53.2151,80.8072,27.5602,315.1851,0.00029053,0.00040251,0.0,0 STARLINK-4762,1 53866U 22114BA  22298.00001157  .00040251  00000-0  29053-3 0  9999,2 53866  53.2151  80.8072 0001404  27.5602 315.1851 15.73143704  6233,6728.056,91.536,350.865,348.976,0.0
53866.0,STARLINK-4762,PAYLOAD,2022-10-25 14:00:01,15.73218065,0.0001476,53.2152,77.9205,31.2357,17.0565,0.00015565,0.00021296,0.0,0 STARLINK-4762,1 53866U 22114BA  22298.58334491  .00021296  00000-0  15565-3 0  9993,2 53866  53.2152  77.9205 0001476  31.2357  17.0565 15.73218065  1303,6727.844,91.532,350.702,348.716,0.0
53866.0,STARLINK-4762,PAYLOAD,2022-10-25 22:00:01,15.73263701,0.000171,53.2147,76.2716,30.9541,106.3564,-0.00029653,-0.00042144,0.0,0 STARLINK-4762,1 53866U 22114BA  22298.91668981 -.00042144  00000-0 -29653-3 0  9994,2 53866  53.2147  76.2716 0001710  30.9541 106.3564 15.73263701  1306,6727.714,91.529,350.72900000000016,348.42800000000005,0.0
53866.0,STARLINK-4762,PAYLOAD,2022-10-26 06:00:00,15.73219418,0.0001629,53.2149,74.6199,41.4827,184.7594,5.626600000000001e-05,7.289e-05,0.0,0 STARLINK-4762,1 53866U 22114BA  22299.25001157  .00007289  00000-0  56266-4 0  9998,2 53866  53.2149  74.6199 0001629  41.4827 184.7594 15.73219418  6436,6727.84,91.532,350.801,348.6090000000001,0.0
53866.0,STARLINK-4762,PAYLOAD,2022-10-26 14:00:01,15.73216622,0.0001878,53.2154,72.9718,41.5747,273.6088,0.00020879,0.00028804,0.0,0 STARLINK-4762,1 53866U 22114BA  22299.58334491  .00028804  00000-0  20879-3 0  9990,2 53866  53.2154  72.9718 0001878  41.5747 273.6088 15.73216622  1309,6727.848000000001,91.532,350.976,348.449,0.0
53866.0,STARLINK-4762,PAYLOAD,2022-10-26 22:00:00,15.73270524,0.0001914,53.2154,71.3228,32.1824,11.9546,-0.00039035,-0.00055215,0.0,0 STARLINK-4762,1 53866U 22114BA  22299.91667824 -.00055215  00000-0 -39035-3 0  9998,2 53866  53.2154  71.3228 0001914  32.1824  11.9546 15.73270524  1304,6727.694,91.529,350.847,348.271,0.0
